sat25363
1 25363U 98036A   20046.78575449  .00000020  00000-0  64333-4 0  9991
2 25363  82.5906 287.6172 0352847  79.1992 348.4092 12.20091382965187
